[{"OBJECT_NAME":"LEMUR-2-KREMPEL-BRO1","OBJECT_ID":"2025-061G","EPOCH":"2026-04-04T21:45:13.545792","MEAN_MOTION":15.14039019,"ECCENTRICITY":0.00201706,"INCLINATION":97.5568,"RA_OF_ASC_NODE":71.2951,"ARG_OF_PERICENTER":137.7745,"MEAN_ANOMALY":222.5044,"EPHEMERIS_TYPE":0,"CLASSIFICATION_TYPE":"U","NORAD_CAT_ID":63357,"ELEMENT_SET_NO":999,"REV_AT_EPOCH":5654,"BSTAR":0.00030572982,"MEAN_MOTION_DOT":5.517e-5,"MEAN_MOTION_DDOT":0},{"OBJECT_NAME":"LEMUR-2-LANGER2SPACE","OBJECT_ID":"2025-061H","EPOCH":"2026-04-04T22:02:20.764032","MEAN_MOTION":15.1373574,"ECCENTRICITY":0.00179216,"INCLINATION":97.5575,"RA_OF_ASC_NODE":71.1503,"ARG_OF_PERICENTER":145.4727,"MEAN_ANOMALY":214.7672,"EPHEMERIS_TYPE":0,"CLASSIFICATION_TYPE":"U","NORAD_CAT_ID":63358,"ELEMENT_SET_NO":999,"REV_AT_EPOCH":5653,"BSTAR":0.00030596237,"MEAN_MOTION_DOT":5.468e-5,"MEAN_MOTION_DDOT":0},{"OBJECT_NAME":"LEMUR-2-BALTO","OBJECT_ID":"2025-052BH","EPOCH":"2026-04-04T15:49:50.545920","MEAN_MOTION":14.99353244,"ECCENTRICITY":7.323e-5,"INCLINATION":97.6986,"RA_OF_ASC_NODE":349.162,"ARG_OF_PERICENTER":87.1259,"MEAN_ANOMALY":273.0048,"EPHEMERIS_TYPE":0,"CLASSIFICATION_TYPE":"U","NORAD_CAT_ID":63395,"ELEMENT_SET_NO":999,"REV_AT_EPOCH":5774,"BSTAR":0.00089818157,"MEAN_MOTION_DOT":0.00010935,"MEAN_MOTION_DDOT":0},{"OBJECT_NAME":"LEMUR-2-KRISH","OBJECT_ID":"2025-135AK","EPOCH":"2026-04-04T19:50:30.109632","MEAN_MOTION":14.95519983,"ECCENTRICITY":0.00011788,"INCLINATION":97.7651,"RA_OF_ASC_NODE":210.2914,"ARG_OF_PERICENTER":96.4219,"MEAN_ANOMALY":263.7136,"EPHEMERIS_TYPE":0,"CLASSIFICATION_TYPE":"U","NORAD_CAT_ID":64561,"ELEMENT_SET_NO":999,"REV_AT_EPOCH":4295,"BSTAR":0.00068561364,"MEAN_MOTION_DOT":7.543e-5,"MEAN_MOTION_DDOT":0},{"OBJECT_NAME":"LEMUR-2-HUBBLE-4","OBJECT_ID":"2025-135AP","EPOCH":"2026-04-04T21:25:28.254432","MEAN_MOTION":14.92992454,"ECCENTRICITY":0.00033073,"INCLINATION":97.7603,"RA_OF_ASC_NODE":209.7274,"ARG_OF_PERICENTER":147.1827,"MEAN_ANOMALY":212.9598,"EPHEMERIS_TYPE":0,"CLASSIFICATION_TYPE":"U","NORAD_CAT_ID":64565,"ELEMENT_SET_NO":999,"REV_AT_EPOCH":4293,"BSTAR":0.00020610079,"MEAN_MOTION_DOT":2.086e-5,"MEAN_MOTION_DDOT":0},{"OBJECT_NAME":"LEMUR-2-SEJONG-2","OBJECT_ID":"2025-135BL","EPOCH":"2026-04-04T21:10:33.841632","MEAN_MOTION":14.96071973,"ECCENTRICITY":0.0004092,"INCLINATION":97.7601,"RA_OF_ASC_NODE":210.4826,"ARG_OF_PERICENTER":191.2397,"MEAN_ANOMALY":168.8734,"EPHEMERIS_TYPE":0,"CLASSIFICATION_TYPE":"U","NORAD_CAT_ID":64586,"ELEMENT_SET_NO":999,"REV_AT_EPOCH":4298,"BSTAR":0.00050192629,"MEAN_MOTION_DOT":5.585e-5,"MEAN_MOTION_DDOT":0},{"OBJECT_NAME":"LEMUR-2-HUBBLE-5","OBJECT_ID":"2025-135BT","EPOCH":"2026-04-04T21:17:05.942976","MEAN_MOTION":14.93911302,"ECCENTRICITY":0.00048699,"INCLINATION":97.7626,"RA_OF_ASC_NODE":210.2467,"ARG_OF_PERICENTER":208.6717,"MEAN_ANOMALY":151.4236,"EPHEMERIS_TYPE":0,"CLASSIFICATION_TYPE":"U","NORAD_CAT_ID":64840,"ELEMENT_SET_NO":999,"REV_AT_EPOCH":4296,"BSTAR":0.00030166069,"MEAN_MOTION_DOT":3.152e-5,"MEAN_MOTION_DDOT":0},{"OBJECT_NAME":"LEMUR-2-KARENDARRELL","OBJECT_ID":"2025-135BU","EPOCH":"2026-04-04T18:51:18.298080","MEAN_MOTION":14.99050983,"ECCENTRICITY":0.00085934,"INCLINATION":97.7607,"RA_OF_ASC_NODE":211.1883,"ARG_OF_PERICENTER":114.1006,"MEAN_ANOMALY":246.1117,"EPHEMERIS_TYPE":0,"CLASSIFICATION_TYPE":"U","NORAD_CAT_ID":64841,"ELEMENT_SET_NO":999,"REV_AT_EPOCH":4301,"BSTAR":0.0012744942,"MEAN_MOTION_DOT":0.0001544,"MEAN_MOTION_DDOT":0},{"OBJECT_NAME":"LEMUR-2-LUCILLE-ROSE","OBJECT_ID":"2025-135BV","EPOCH":"2026-04-04T21:27:45.030816","MEAN_MOTION":14.99097448,"ECCENTRICITY":0.0010284,"INCLINATION":97.7646,"RA_OF_ASC_NODE":211.2816,"ARG_OF_PERICENTER":156.9466,"MEAN_ANOMALY":203.2221,"EPHEMERIS_TYPE":0,"CLASSIFICATION_TYPE":"U","NORAD_CAT_ID":65403,"ELEMENT_SET_NO":999,"REV_AT_EPOCH":3765,"BSTAR":0.00095257225,"MEAN_MOTION_DOT":0.00011536,"MEAN_MOTION_DDOT":0},{"OBJECT_NAME":"LEMUR-2-AFFIE-WAUWIE","OBJECT_ID":"2025-248C","EPOCH":"2026-04-04T20:45:50.172192","MEAN_MOTION":15.2479142,"ECCENTRICITY":0.00079252,"INCLINATION":45.4006,"RA_OF_ASC_NODE":151.4892,"ARG_OF_PERICENTER":14.925,"MEAN_ANOMALY":345.1871,"EPHEMERIS_TYPE":0,"CLASSIFICATION_TYPE":"U","NORAD_CAT_ID":66295,"ELEMENT_SET_NO":999,"REV_AT_EPOCH":2339,"BSTAR":0.00086438373,"MEAN_MOTION_DOT":0.00021613,"MEAN_MOTION_DDOT":0},{"OBJECT_NAME":"LEMUR-2-DEANANDMAEVE","OBJECT_ID":"2025-276N","EPOCH":"2026-04-04T16:17:56.382720","MEAN_MOTION":15.1881018,"ECCENTRICITY":0.00045363,"INCLINATION":97.4243,"RA_OF_ASC_NODE":169.415,"ARG_OF_PERICENTER":248.857,"MEAN_ANOMALY":111.218,"EPHEMERIS_TYPE":0,"CLASSIFICATION_TYPE":"U","NORAD_CAT_ID":66678,"ELEMENT_SET_NO":999,"REV_AT_EPOCH":1925,"BSTAR":0.0005435112,"MEAN_MOTION_DOT":0.00011255,"MEAN_MOTION_DDOT":0},{"OBJECT_NAME":"LEMUR-2-STAS-GORBUK","OBJECT_ID":"2025-276W","EPOCH":"2026-04-04T16:19:01.606944","MEAN_MOTION":15.18590625,"ECCENTRICITY":0.00039463,"INCLINATION":97.4281,"RA_OF_ASC_NODE":169.4689,"ARG_OF_PERICENTER":242.2761,"MEAN_ANOMALY":117.8073,"EPHEMERIS_TYPE":0,"CLASSIFICATION_TYPE":"U","NORAD_CAT_ID":66686,"ELEMENT_SET_NO":999,"REV_AT_EPOCH":1925,"BSTAR":0.0004997453,"MEAN_MOTION_DOT":0.00010276,"MEAN_MOTION_DDOT":0},{"OBJECT_NAME":"LEMUR-2-TEODOR","OBJECT_ID":"2025-276DG","EPOCH":"2026-04-04T16:16:52.228128","MEAN_MOTION":15.20257476,"ECCENTRICITY":0.0002109,"INCLINATION":97.4182,"RA_OF_ASC_NODE":169.6121,"ARG_OF_PERICENTER":84.0089,"MEAN_ANOMALY":276.1387,"EPHEMERIS_TYPE":0,"CLASSIFICATION_TYPE":"U","NORAD_CAT_ID":66768,"ELEMENT_SET_NO":999,"REV_AT_EPOCH":1927,"BSTAR":0.00045274345,"MEAN_MOTION_DOT":9.762e-5,"MEAN_MOTION_DDOT":0},{"OBJECT_NAME":"LEMUR-2-LAILA","OBJECT_ID":"2025-276DQ","EPOCH":"2026-04-04T17:29:04.643808","MEAN_MOTION":15.20470593,"ECCENTRICITY":0.00027942,"INCLINATION":97.4206,"RA_OF_ASC_NODE":169.7359,"ARG_OF_PERICENTER":89.5354,"MEAN_ANOMALY":270.6202,"EPHEMERIS_TYPE":0,"CLASSIFICATION_TYPE":"U","NORAD_CAT_ID":66776,"ELEMENT_SET_NO":999,"REV_AT_EPOCH":1928,"BSTAR":0.00043971645,"MEAN_MOTION_DOT":9.539e-5,"MEAN_MOTION_DDOT":0},{"OBJECT_NAME":"LEMUR-2-CELIJO-SB-PK","OBJECT_ID":"2025-276DW","EPOCH":"2026-04-04T18:23:38.383008","MEAN_MOTION":14.9911387,"ECCENTRICITY":0.00107408,"INCLINATION":97.5302,"RA_OF_ASC_NODE":167.991,"ARG_OF_PERICENTER":33.1943,"MEAN_ANOMALY":326.9952,"EPHEMERIS_TYPE":0,"CLASSIFICATION_TYPE":"U","NORAD_CAT_ID":66781,"ELEMENT_SET_NO":999,"REV_AT_EPOCH":1162,"BSTAR":0.0010129753,"MEAN_MOTION_DOT":0.00012281,"MEAN_MOTION_DDOT":0},{"OBJECT_NAME":"LEMUR-2-FINNIAN","OBJECT_ID":"2025-276DX","EPOCH":"2026-04-04T18:21:01.109952","MEAN_MOTION":14.99564901,"ECCENTRICITY":0.0006143,"INCLINATION":97.5336,"RA_OF_ASC_NODE":168.1524,"ARG_OF_PERICENTER":29.6428,"MEAN_ANOMALY":330.5143,"EPHEMERIS_TYPE":0,"CLASSIFICATION_TYPE":"U","NORAD_CAT_ID":66782,"ELEMENT_SET_NO":999,"REV_AT_EPOCH":899,"BSTAR":0.00090871309,"MEAN_MOTION_DOT":0.00011131,"MEAN_MOTION_DDOT":0}]
