LEMUR-2-KREMPEL-BRO1    
1 63357U 25061G   26094.90640678  .00005517  00000+0  30573-3 0  9997
2 63357  97.5568  71.2951 0020170 137.7745 222.5044 15.14039019 56547
LEMUR-2-LANGER2SPACE    
1 63358U 25061H   26094.91829588  .00005468  00000+0  30596-3 0  9998
2 63358  97.5575  71.1503 0017921 145.4727 214.7672 15.13735740 56536
LEMUR-2-BALTO           
1 63395U 25052BH  26094.65961280  .00010935  00000+0  89818-3 0  9992
2 63395  97.6986 349.1620 0000732  87.1259 273.0048 14.99353244 57743
LEMUR-2-KRISH           
1 64561U 25135AK  26094.82673738  .00007543  00000+0  68561-3 0  9990
2 64561  97.7651 210.2914 0001178  96.4219 263.7136 14.95519983 42958
LEMUR-2-HUBBLE-4        
1 64565U 25135AP  26094.89268813  .00002086  00000+0  20610-3 0  9995
2 64565  97.7603 209.7274 0003307 147.1827 212.9598 14.92992454 42937
LEMUR-2-SEJONG-2        
1 64586U 25135BL  26094.88233613  .00005585  00000+0  50193-3 0  9993
2 64586  97.7601 210.4826 0004092 191.2397 168.8734 14.96071973 42988
LEMUR-2-HUBBLE-5        
1 64840U 25135BT  26094.88687434  .00003152  00000+0  30166-3 0  9996
2 64840  97.7626 210.2467 0004869 208.6717 151.4236 14.93911302 42967
LEMUR-2-KARENDARRELL    
1 64841U 25135BU  26094.78562845  .00015440  00000+0  12745-2 0  9999
2 64841  97.7607 211.1883 0008593 114.1006 246.1117 14.99050983 43011
LEMUR-2-LUCILLE-ROSE    
1 65403U 25135BV  26094.89427119  .00011536  00000+0  95257-3 0  9992
2 65403  97.7646 211.2816 0010284 156.9466 203.2221 14.99097448 37650
LEMUR-2-AFFIE-WAUWIE    
1 66295U 25248C   26094.86516403  .00021613  00000+0  86438-3 0  9997
2 66295  45.4006 151.4892 0007925  14.9250 345.1871 15.24791420 23394
LEMUR-2-DEANANDMAEVE    
1 66678U 25276N   26094.67912480  .00011255  00000+0  54351-3 0  9997
2 66678  97.4243 169.4150 0004536 248.8570 111.2180 15.18810180 19256
LEMUR-2-STAS-GORBUK     
1 66686U 25276W   26094.67987971  .00010276  00000+0  49975-3 0  9991
2 66686  97.4281 169.4689 0003946 242.2761 117.8073 15.18590625 19250
LEMUR-2-TEODOR          
1 66768U 25276DG  26094.67838227  .00009762  00000+0  45274-3 0  9997
2 66768  97.4182 169.6121 0002109  84.0089 276.1387 15.20257476 19275
LEMUR-2-LAILA           
1 66776U 25276DQ  26094.72852597  .00009539  00000+0  43972-3 0  9993
2 66776  97.4206 169.7359 0002794  89.5354 270.6202 15.20470593 19283
LEMUR-2-CELIJO-SB-PK    
1 66781U 25276DW  26094.76641647  .00012281  00000+0  10130-2 0  9992
2 66781  97.5302 167.9910 0010740  33.1943 326.9952 14.99113870 11623
LEMUR-2-FINNIAN         
1 66782U 25276DX  26094.76459618  .00011131  00000+0  90871-3 0  9992
2 66782  97.5336 168.1524 0006143  29.6428 330.5143 14.99564901  8999
